CCSDS_OMM_VERS,COMMENT,CREATION_DATE,ORIGINATOR,OBJECT_NAME,OBJECT_ID,CENTER_NAME,REF_FRAME,TIME_SYSTEM,MEAN_ELEMENT_THEORY,EPOCH,MEAN_MOTION,ECCENTRICITY,INCLINATION,RA_OF_ASC_NODE,ARG_OF_PERICENTER,MEAN_ANOMALY,EPHEMERIS_TYPE,CLASSIFICATION_TYPE,NORAD_CAT_ID,ELEMENT_SET_NO,REV_AT_EPOCH,BSTAR,MEAN_MOTION_DOT,MEAN_MOTION_DDOT,SEMIMAJOR_AXIS,PERIOD,APOAPSIS,PERIAPSIS,OBJECT_TYPE,RCS_SIZE,COUNTRY_CODE,LAUNCH_DATE,SITE,DECAY_DATE,FILE,GP_ID,TLE_LINE0,TLE_LINE1,TLE_LINE2
"3.0","GENERATED VIA SPACE-TRACK.ORG API","2026-03-25T04:32:27","18 SPCS","CZ-6A DEB","2022-151XU","EARTH","TEME","UTC","SGP4","2026-03-24T14:13:24.557376","14.64134159","0.00703348","98.6092","134.4122","206.9866","152.7671","0","U","55522","999","17224","0.00166658680000","0.00009035","0.0000000000000","7057.994","98.352","729.501","630.216","DEBRIS","SMALL","PRC","2022-11-11","TSC","","5096755","316989201","0 CZ-6A DEB","1 55522U 22151XU  26083.59264534  .00009035  00000-0  16666-2 0  9991","2 55522  98.6092 134.4122 0070335 206.9866 152.7671 14.64134159172240"
"3.0","GENERATED VIA SPACE-TRACK.ORG API","2026-03-25T17:29:05","18 SPCS","CZ-6A DEB","2022-151YE","EARTH","TEME","UTC","SGP4","2026-03-25T03:58:47.303328","14.87869320","0.00512118","98.6399","154.5626","164.4809","195.7990","0","U","55532","999","17319","0.00341301890000","0.00032055","0.0000000000000","6982.731","96.783","640.356","568.836","DEBRIS","SMALL","PRC","2022-11-11","TSC","","5096884","317022397","0 CZ-6A DEB","1 55532U 22151YE  26084.16582527  .00032055  00000-0  34130-2 0  9995","2 55532  98.6399 154.5626 0051212 164.4809 195.7990 14.87869320173197"
"3.0","GENERATED VIA SPACE-TRACK.ORG API","2026-03-25T17:29:05","18 SPCS","CZ-6A DEB","2022-151YG","EARTH","TEME","UTC","SGP4","2026-03-25T04:41:16.397952","14.91644125","0.00525859","98.6499","161.0375","146.7036","213.7507","0","U","55534","999","17352","0.00376481190000","0.00038968","0.0000000000000","6970.946","96.538","629.468","556.153","DEBRIS","SMALL","PRC","2022-11-11","TSC","","5096884","317022398","0 CZ-6A DEB","1 55534U 22151YG  26084.19532868  .00038968  00000-0  37648-2 0  9999","2 55534  98.6499 161.0375 0052586 146.7036 213.7507 14.91644125173525"
"3.0","GENERATED VIA SPACE-TRACK.ORG API","2026-03-25T17:29:05","18 SPCS","CZ-6A DEB","2022-151YH","EARTH","TEME","UTC","SGP4","2026-03-25T03:43:09.337152","14.71495099","0.00760983","98.6327","148.5520","176.1367","184.0442","0","U","55535","999","17282","0.00189001630000","0.00012229","0.0000000000000","7034.436","97.860","709.832","602.770","DEBRIS","SMALL","PRC","2022-11-11","TSC","","5096884","317021898","0 CZ-6A DEB","1 55535U 22151YH  26084.15496918  .00012229  00000-0  18900-2 0  9993","2 55535  98.6327 148.5520 0076098 176.1367 184.0442 14.71495099172828"
"3.0","GENERATED VIA SPACE-TRACK.ORG API","2026-03-25T17:29:05","18 SPCS","CZ-6A DEB","2022-151YK","EARTH","TEME","UTC","SGP4","2026-03-25T14:00:27.882720","14.70061643","0.00721608","98.6281","144.8723","187.5645","172.4477","0","U","55537","999","17252","0.00235237570000","0.00014674","0.0000000000000","7039.008","97.955","711.667","610.079","DEBRIS","SMALL","PRC","2022-11-11","TSC","","5096884","317021899","0 CZ-6A DEB","1 55537U 22151YK  26084.58365605  .00014674  00000-0  23524-2 0  9994","2 55537  98.6281 144.8723 0072161 187.5645 172.4477 14.70061643172524"
"3.0","GENERATED VIA SPACE-TRACK.ORG API","2026-03-25T17:29:05","18 SPCS","CZ-6A DEB","2022-151YY","EARTH","TEME","UTC","SGP4","2026-03-25T14:30:35.483904","14.70911651","0.00810400","98.6256","147.0647","181.0989","179.0050","0","U","55550","999","17182","0.00220976470000","0.00014205","0.0000000000000","7036.296","97.898","715.183","601.139","DEBRIS","SMALL","PRC","2022-11-11","TSC","","5096884","317022404","0 CZ-6A DEB","1 55550U 22151YY  26084.60457736  .00014205  00000-0  22098-2 0  9994","2 55550  98.6256 147.0647 0081040 181.0989 179.0050 14.70911651171822"
"3.0","GENERATED VIA SPACE-TRACK.ORG API","2026-03-25T17:29:05","18 SPCS","CZ-6A DEB","2022-151ZA","EARTH","TEME","UTC","SGP4","2026-03-25T02:28:29.047872","14.65559028","0.00735882","98.6259","138.7790","202.4774","157.3199","0","U","55552","999","17120","0.00205320220000","0.00011554","0.0000000000000","7053.418","98.256","727.188","623.378","DEBRIS","SMALL","PRC","2022-11-11","TSC","","5096884","317022405","0 CZ-6A DEB","1 55552U 22151ZA  26084.10311398  .00011554  00000-0  20532-2 0  9999","2 55552  98.6259 138.7790 0073588 202.4774 157.3199 14.65559028171206"
"3.0","GENERATED VIA SPACE-TRACK.ORG API","2026-03-25T17:29:05","18 SPCS","CZ-6A DEB","2022-151ZE","EARTH","TEME","UTC","SGP4","2026-03-25T14:28:36.839424","14.73675091","0.00726894","98.6322","149.7598","173.4069","186.8111","0","U","55556","999","17812","0.00251459390000","0.00017089","0.0000000000000","7027.497","97.715","700.445","598.280","DEBRIS","SMALL","PRC","2022-11-11","TSC","","5096884","317022406","0 CZ-6A DEB","1 55556U 22151ZE  26084.60320416  .00017089  00000-0  25146-2 0  9994","2 55556  98.6322 149.7598 0072689 173.4069 186.8111 14.73675091178121"
"3.0","GENERATED VIA SPACE-TRACK.ORG API","2026-03-25T17:29:05","18 SPCS","CZ-6A DEB","2022-151ZQ","EARTH","TEME","UTC","SGP4","2026-03-25T08:31:38.431488","14.60893556","0.00684866","98.5921","129.2379","210.8182","148.8989","0","U","55868","999","9672","0.00156371650000","0.00007863","0.0000000000000","7068.427","98.570","738.702","641.883","DEBRIS","SMALL","PRC","2022-11-11","TSC","","5096884","317022021","0 CZ-6A DEB","1 55868U 22151ZQ  26084.35530592  .00007863  00000-0  15637-2 0  9993","2 55868  98.5921 129.2379 0068487 210.8182 148.8989 14.60893556 96724"
"3.0","GENERATED VIA SPACE-TRACK.ORG API","2026-03-25T17:29:05","18 SPCS","CZ-6A DEB","2022-151ZR","EARTH","TEME","UTC","SGP4","2026-03-25T03:58:39.452160","14.70836611","0.00744275","98.6411","147.9843","180.8706","179.2381","0","U","55869","999","16589","0.00181776320000","0.00011556","0.0000000000000","7036.536","97.903","710.772","606.029","DEBRIS","SMALL","PRC","2022-11-11","TSC","","5096884","317022522","0 CZ-6A DEB","1 55869U 22151ZR  26084.16573440  .00011556  00000-0  18178-2 0  9999","2 55869  98.6411 147.9843 0074427 180.8706 179.2381 14.70836611165891"
"3.0","GENERATED VIA SPACE-TRACK.ORG API","2026-03-25T04:32:27","18 SPCS","CZ-6A DEB","2022-151AAT","EARTH","TEME","UTC","SGP4","2026-03-24T20:49:22.631520","14.72969750","0.00966892","98.5917","135.3234","212.6300","146.8909","0","U","55895","999","17225","0.00219091980000","0.00015113","0.0000000000000","7029.740","97.762","719.575","583.635","DEBRIS","SMALL","PRC","2022-11-11","TSC","","5096755","316988838","0 CZ-6A DEB","1 55895U 22151AAT 26083.86762305  .00015113  00000-0  21909-2 0  9993","2 55895  98.5917 135.3234 0096689 212.6300 146.8909 14.72969750172250"
"3.0","GENERATED VIA SPACE-TRACK.ORG API","2026-03-25T17:29:05","18 SPCS","CZ-6A DEB","2022-151AAX","EARTH","TEME","UTC","SGP4","2026-03-25T02:54:27.749664","14.80958024","0.00600063","98.6278","153.4899","157.3052","203.0832","0","U","55899","999","17216","0.00285230500000","0.00022771","0.0000000000000","7004.439","97.234","668.335","584.273","DEBRIS","SMALL","PRC","2022-11-11","TSC","","5096884","317022031","0 CZ-6A DEB","1 55899U 22151AAX 26084.12115451  .00022771  00000-0  28523-2 0  9998","2 55899  98.6278 153.4899 0060006 157.3052 203.0832 14.80958024172168"
"3.0","GENERATED VIA SPACE-TRACK.ORG API","2026-03-25T04:32:27","18 SPCS","CZ-6A DEB","2022-151ABA","EARTH","TEME","UTC","SGP4","2026-03-24T14:56:10.581216","14.79389154","0.00481853","98.5793","138.9727","165.5585","194.7014","0","U","55902","999","17693","0.00312668860000","0.00023787","0.0000000000000","7009.390","97.337","665.030","597.480","DEBRIS","SMALL","PRC","2022-11-11","TSC","","5096755","316988841","0 CZ-6A DEB","1 55902U 22151ABA 26083.62234469  .00023787  00000-0  31267-2 0  9995","2 55902  98.5793 138.9727 0048185 165.5585 194.7014 14.79389154176935"
"3.0","GENERATED VIA SPACE-TRACK.ORG API","2026-03-25T17:29:05","18 SPCS","CZ-6A DEB","2022-151ABG","EARTH","TEME","UTC","SGP4","2026-03-25T05:46:55.725600","14.80869747","0.00714589","98.8041","186.3524","158.5889","201.8336","0","U","56240","999","16699","0.00266867880000","0.00021528","0.0000000000000","7004.717","97.240","676.637","576.527","DEBRIS","SMALL","PRC","2022-11-11","TSC","","5096884","317022655","0 CZ-6A DEB","1 56240U 22151ABG 26084.24092275  .00021528  00000-0  26687-2 0  9998","2 56240  98.8041 186.3524 0071459 158.5889 201.8336 14.80869747166996"
"3.0","GENERATED VIA SPACE-TRACK.ORG API","2026-03-25T04:32:27","18 SPCS","CZ-6A DEB","2022-151ABH","EARTH","TEME","UTC","SGP4","2026-03-24T16:23:45.213216","14.61549138","0.00845939","98.8211","171.1090","217.0291","142.5052","0","U","56241","999","16586","0.00135360010000","0.00007018","0.0000000000000","7066.313","98.526","747.955","628.402","DEBRIS","SMALL","PRC","2022-11-11","TSC","","5096755","316989463","0 CZ-6A DEB","1 56241U 22151ABH 26083.68316219  .00007018  00000-0  13536-2 0  9990","2 56241  98.8211 171.1090 0084594 217.0291 142.5052 14.61549138165867"
"3.0","GENERATED VIA SPACE-TRACK.ORG API","2026-03-24T04:52:42","18 SPCS","CZ-6A DEB","2022-151ABP","EARTH","TEME","UTC","SGP4","2026-03-23T14:06:16.981920","14.71843681","0.01182443","98.4422","133.6825","115.8618","245.4837","0","U","56247","999","16520","0.00150656980000","0.00010471","0.0000000000000","7033.325","97.836","738.356","572.025","DEBRIS","SMALL","PRC","2022-11-11","TSC","","5095836","316904784","0 CZ-6A DEB","1 56247U 22151ABP 26082.58769655  .00010471  00000-0  15066-2 0  9997","2 56247  98.4422 133.6825 0118244 115.8618 245.4837 14.71843681165203"
